[{"OBJECT_NAME":"FENGYUN 2F","OBJECT_ID":"2012-002A","EPOCH":"2022-08-18T14:09:36.180576","MEAN_MOTION":1.00272221,"ECCENTRICITY":5.61e-5,"INCLINATION":3.9396,"RA_OF_ASC_NODE":79.2221,"ARG_OF_PERICENTER":126.1013,"MEAN_ANOMALY":86.1932,"EPHEMERIS_TYPE":0,"CLASSIFICATION_TYPE":"U","NORAD_CAT_ID":38049,"ELEMENT_SET_NO":999,"REV_AT_EPOCH":3886,"BSTAR":0,"MEAN_MOTION_DOT":-3.67e-6,"MEAN_MOTION_DDOT":0},{"OBJECT_NAME":"WGS F4 (USA 233)","OBJECT_ID":"2012-003A","EPOCH":"2022-08-18T18:22:54.738912","MEAN_MOTION":1.00271747,"ECCENTRICITY":4.24e-5,"INCLINATION":0.0077,"RA_OF_ASC_NODE":145.2957,"ARG_OF_PERICENTER":78.5382,"MEAN_ANOMALY":107.3861,"EPHEMERIS_TYPE":0,"CLASSIFICATION_TYPE":"U","NORAD_CAT_ID":38070,"ELEMENT_SET_NO":999,"REV_AT_EPOCH":3012,"BSTAR":0,"MEAN_MOTION_DOT":-2.22e-6,"MEAN_MOTION_DDOT":0},{"OBJECT_NAME":"SES-4","OBJECT_ID":"2012-007A","EPOCH":"2022-08-18T20:34:42.650112","MEAN_MOTION":1.00272081,"ECCENTRICITY":0.0002307,"INCLINATION":0.0138,"RA_OF_ASC_NODE":39.6673,"ARG_OF_PERICENTER":108.9215,"MEAN_ANOMALY":105.2729,"EPHEMERIS_TYPE":0,"CLASSIFICATION_TYPE":"U","NORAD_CAT_ID":38087,"ELEMENT_SET_NO":999,"REV_AT_EPOCH":3821,"BSTAR":0,"MEAN_MOTION_DOT":-1.75e-6,"MEAN_MOTION_DDOT":0},{"OBJECT_NAME":"BEIDOU 11","OBJECT_ID":"2012-008A","EPOCH":"2022-08-19T01:59:47.145984","MEAN_MOTION":1.00275613,"ECCENTRICITY":0.0013141,"INCLINATION":1.7007,"RA_OF_ASC_NODE":68.9888,"ARG_OF_PERICENTER":344.584,"MEAN_ANOMALY":2.5224,"EPHEMERIS_TYPE":0,"CLASSIFICATION_TYPE":"U","NORAD_CAT_ID":38091,"ELEMENT_SET_NO":999,"REV_AT_EPOCH":3845,"BSTAR":0,"MEAN_MOTION_DOT":4.9e-7,"MEAN_MOTION_DDOT":0},{"OBJECT_NAME":"INTELSAT 22 (IS-22)","OBJECT_ID":"2012-011A","EPOCH":"2022-08-18T20:53:36.026304","MEAN_MOTION":1.00272045,"ECCENTRICITY":0.0002862,"INCLINATION":0.0211,"RA_OF_ASC_NODE":98.3379,"ARG_OF_PERICENTER":62.6219,"MEAN_ANOMALY":191.7361,"EPHEMERIS_TYPE":0,"CLASSIFICATION_TYPE":"U","NORAD_CAT_ID":38098,"ELEMENT_SET_NO":999,"REV_AT_EPOCH":3779,"BSTAR":0,"MEAN_MOTION_DOT":-6.6e-7,"MEAN_MOTION_DDOT":0},{"OBJECT_NAME":"APSTAR 7","OBJECT_ID":"2012-013A","EPOCH":"2022-08-18T20:45:39.588192","MEAN_MOTION":1.0027262,"ECCENTRICITY":0.0002448,"INCLINATION":0.0227,"RA_OF_ASC_NODE":122.7157,"ARG_OF_PERICENTER":46.6709,"MEAN_ANOMALY":185.7031,"EPHEMERIS_TYPE":0,"CLASSIFICATION_TYPE":"U","NORAD_CAT_ID":38107,"ELEMENT_SET_NO":999,"REV_AT_EPOCH":3778,"BSTAR":0,"MEAN_MOTION_DOT":-1.09e-6,"MEAN_MOTION_DDOT":0},{"OBJECT_NAME":"YAHSAT 1B","OBJECT_ID":"2012-016A","EPOCH":"2022-08-16T18:59:06.542016","MEAN_MOTION":1.00271678,"ECCENTRICITY":0.0001532,"INCLINATION":0.0229,"RA_OF_ASC_NODE":105.1819,"ARG_OF_PERICENTER":27.6776,"MEAN_ANOMALY":164.6453,"EPHEMERIS_TYPE":0,"CLASSIFICATION_TYPE":"U","NORAD_CAT_ID":38245,"ELEMENT_SET_NO":999,"REV_AT_EPOCH":3787,"BSTAR":0,"MEAN_MOTION_DOT":1.15e-6,"MEAN_MOTION_DDOT":0},{"OBJECT_NAME":"AEHF-2 (USA 235)","OBJECT_ID":"2012-019A","EPOCH":"2022-08-18T20:05:53.063808","MEAN_MOTION":1.00270158,"ECCENTRICITY":0.0002669,"INCLINATION":3.4733,"RA_OF_ASC_NODE":61.1955,"ARG_OF_PERICENTER":84.7261,"MEAN_ANOMALY":28.5077,"EPHEMERIS_TYPE":0,"CLASSIFICATION_TYPE":"U","NORAD_CAT_ID":38254,"ELEMENT_SET_NO":999,"REV_AT_EPOCH":3683,"BSTAR":0,"MEAN_MOTION_DOT":-1.67e-6,"MEAN_MOTION_DDOT":0},{"OBJECT_NAME":"JCSAT-13","OBJECT_ID":"2012-023A","EPOCH":"2022-08-18T20:19:42.633408","MEAN_MOTION":1.00271264,"ECCENTRICITY":0.0001936,"INCLINATION":0.0113,"RA_OF_ASC_NODE":126.8572,"ARG_OF_PERICENTER":31.7069,"MEAN_ANOMALY":237.5356,"EPHEMERIS_TYPE":0,"CLASSIFICATION_TYPE":"U","NORAD_CAT_ID":38331,"ELEMENT_SET_NO":999,"REV_AT_EPOCH":3750,"BSTAR":0,"MEAN_MOTION_DOT":-3.63e-6,"MEAN_MOTION_DDOT":0},{"OBJECT_NAME":"VINASAT-2","OBJECT_ID":"2012-023B","EPOCH":"2022-08-17T15:26:34.503360","MEAN_MOTION":1.00271305,"ECCENTRICITY":0.000201,"INCLINATION":0.0089,"RA_OF_ASC_NODE":37.4367,"ARG_OF_PERICENTER":109.2097,"MEAN_ANOMALY":182.8231,"EPHEMERIS_TYPE":0,"CLASSIFICATION_TYPE":"U","NORAD_CAT_ID":38332,"ELEMENT_SET_NO":999,"REV_AT_EPOCH":3261,"BSTAR":0,"MEAN_MOTION_DOT":-3.38e-6,"MEAN_MOTION_DDOT":0},{"OBJECT_NAME":"NIMIQ 6","OBJECT_ID":"2012-026A","EPOCH":"2022-08-17T05:03:35.288640","MEAN_MOTION":1.00271906,"ECCENTRICITY":0.0002612,"INCLINATION":0.0427,"RA_OF_ASC_NODE":274.2968,"ARG_OF_PERICENTER":238.2195,"MEAN_ANOMALY":157.8267,"EPHEMERIS_TYPE":0,"CLASSIFICATION_TYPE":"U","NORAD_CAT_ID":38342,"ELEMENT_SET_NO":999,"REV_AT_EPOCH":3638,"BSTAR":0,"MEAN_MOTION_DOT":-1.84e-6,"MEAN_MOTION_DDOT":0},{"OBJECT_NAME":"CHINASAT 2A (ZX 2A)","OBJECT_ID":"2012-028A","EPOCH":"2022-08-18T21:00:44.961696","MEAN_MOTION":1.00271052,"ECCENTRICITY":0.0001794,"INCLINATION":0.0231,"RA_OF_ASC_NODE":220.0755,"ARG_OF_PERICENTER":144.7964,"MEAN_ANOMALY":15.7794,"EPHEMERIS_TYPE":0,"CLASSIFICATION_TYPE":"U","NORAD_CAT_ID":38352,"ELEMENT_SET_NO":999,"REV_AT_EPOCH":3735,"BSTAR":0,"MEAN_MOTION_DOT":-3.0e-6,"MEAN_MOTION_DDOT":0},{"OBJECT_NAME":"INTELSAT 19 (IS-19)","OBJECT_ID":"2012-030A","EPOCH":"2022-08-18T21:20:20.793120","MEAN_MOTION":1.00271796,"ECCENTRICITY":0.0003106,"INCLINATION":0.0119,"RA_OF_ASC_NODE":128.4482,"ARG_OF_PERICENTER":25.7965,"MEAN_ANOMALY":299.0537,"EPHEMERIS_TYPE":0,"CLASSIFICATION_TYPE":"U","NORAD_CAT_ID":38356,"ELEMENT_SET_NO":999,"REV_AT_EPOCH":3641,"BSTAR":0,"MEAN_MOTION_DOT":-6.3e-7,"MEAN_MOTION_DDOT":0},{"OBJECT_NAME":"ECHOSTAR 17","OBJECT_ID":"2012-035A","EPOCH":"2022-08-17T11:09:15.431616","MEAN_MOTION":1.00271663,"ECCENTRICITY":0.0002035,"INCLINATION":0.0125,"RA_OF_ASC_NODE":115.965,"ARG_OF_PERICENTER":34.2888,"MEAN_ANOMALY":235.7594,"EPHEMERIS_TYPE":0,"CLASSIFICATION_TYPE":"U","NORAD_CAT_ID":38551,"ELEMENT_SET_NO":999,"REV_AT_EPOCH":3702,"BSTAR":0,"MEAN_MOTION_DOT":-8.5e-7,"MEAN_MOTION_DDOT":0},{"OBJECT_NAME":"METEOSAT-10 (MSG-3)","OBJECT_ID":"2012-035B","EPOCH":"2022-08-18T20:35:31.113600","MEAN_MOTION":1.00272021,"ECCENTRICITY":3.47e-5,"INCLINATION":1.6145,"RA_OF_ASC_NODE":44.6089,"ARG_OF_PERICENTER":61.142,"MEAN_ANOMALY":179.4846,"EPHEMERIS_TYPE":0,"CLASSIFICATION_TYPE":"U","NORAD_CAT_ID":38552,"ELEMENT_SET_NO":999,"REV_AT_EPOCH":3683,"BSTAR":0,"MEAN_MOTION_DOT":5.3e-7,"MEAN_MOTION_DDOT":0}]