FENGYUN 2F              
1 38049U 12002A   22230.59000209 -.00000367  00000+0  00000+0 0  9998
2 38049   3.9396  79.2221 0000561 126.1013  86.1932  1.00272221 38866
WGS F4 (USA 233)        
1 38070U 12003A   22230.76591133 -.00000222  00000+0  00000+0 0  9993
2 38070   0.0077 145.2957 0000424  78.5382 107.3861  1.00271747 30121
SES-4                   
1 38087U 12007A   22230.85743808 -.00000175  00000+0  00000+0 0  9990
2 38087   0.0138  39.6673 0002307 108.9215 105.2729  1.00272081 38213
BEIDOU 11               
1 38091U 12008A   22231.08318456  .00000049  00000+0  00000+0 0  9998
2 38091   1.7007  68.9888 0013141 344.5840   2.5224  1.00275613 38453
INTELSAT 22 (IS-22)     
1 38098U 12011A   22230.87055586 -.00000066  00000+0  00000+0 0  9997
2 38098   0.0211  98.3379 0002862  62.6219 191.7361  1.00272045 37792
APSTAR 7                
1 38107U 12013A   22230.86504153 -.00000109  00000+0  00000+0 0  9996
2 38107   0.0227 122.7157 0002448  46.6709 185.7031  1.00272620 37787
YAHSAT 1B               
1 38245U 12016A   22228.79104794  .00000115  00000+0  00000+0 0  9994
2 38245   0.0229 105.1819 0001532  27.6776 164.6453  1.00271678 37874
AEHF-2 (USA 235)        
1 38254U 12019A   22230.83741972 -.00000167  00000+0  00000+0 0  9998
2 38254   3.4733  61.1955 0002669  84.7261  28.5077  1.00270158 36835
JCSAT-13                
1 38331U 12023A   22230.84702122 -.00000363  00000+0  00000+0 0  9992
2 38331   0.0113 126.8572 0001936  31.7069 237.5356  1.00271264 37500
VINASAT-2               
1 38332U 12023B   22229.64345490 -.00000338  00000+0  00000+0 0  9992
2 38332   0.0089  37.4367 0002010 109.2097 182.8231  1.00271305 32615
NIMIQ 6                 
1 38342U 12026A   22229.21082510 -.00000184  00000+0  00000+0 0  9999
2 38342   0.0427 274.2968 0002612 238.2195 157.8267  1.00271906 36386
CHINASAT 2A (ZX 2A)     
1 38352U 12028A   22230.87552039 -.00000300  00000+0  00000+0 0  9994
2 38352   0.0231 220.0755 0001794 144.7964  15.7794  1.00271052 37355
INTELSAT 19 (IS-19)     
1 38356U 12030A   22230.88912955 -.00000063  00000+0  00000+0 0  9995
2 38356   0.0119 128.4482 0003106  25.7965 299.0537  1.00271796 36413
ECHOSTAR 17             
1 38551U 12035A   22229.46476194 -.00000085  00000+0  00000+0 0  9993
2 38551   0.0125 115.9650 0002035  34.2888 235.7594  1.00271663 37025
METEOSAT-10 (MSG-3)     
1 38552U 12035B   22230.85799900  .00000053  00000+0  00000+0 0  9996
2 38552   1.6145  44.6089 0000347  61.1420 179.4846  1.00272021 36835
